[{"OBJECT_NAME":"HULIANWANG DIGUI-97","OBJECT_ID":"2025-258B","EPOCH":"2026-03-04T17:45:07.626240","MEAN_MOTION":13.293323,"ECCENTRICITY":4.06e-5,"INCLINATION":50.0018,"RA_OF_ASC_NODE":310.502,"ARG_OF_PERICENTER":95.1287,"MEAN_ANOMALY":264.9631,"EPHEMERIS_TYPE":0,"CLASSIFICATION_TYPE":"U","NORAD_CAT_ID":66413,"ELEMENT_SET_NO":999,"REV_AT_EPOCH":1583,"BSTAR":0.00016808,"MEAN_MOTION_DOT":-4.6e-7,"MEAN_MOTION_DDOT":0},{"OBJECT_NAME":"HULIANWANG DIGUI-98","OBJECT_ID":"2025-258C","EPOCH":"2026-03-04T17:33:03.697056","MEAN_MOTION":13.29333866,"ECCENTRICITY":4.48e-5,"INCLINATION":50.0055,"RA_OF_ASC_NODE":310.5001,"ARG_OF_PERICENTER":108.6207,"MEAN_ANOMALY":251.4714,"EPHEMERIS_TYPE":0,"CLASSIFICATION_TYPE":"U","NORAD_CAT_ID":66414,"ELEMENT_SET_NO":999,"REV_AT_EPOCH":1583,"BSTAR":0.00016384,"MEAN_MOTION_DOT":-4.8e-7,"MEAN_MOTION_DDOT":0},{"OBJECT_NAME":"HULIANWANG DIGUI-99","OBJECT_ID":"2025-258D","EPOCH":"2026-03-04T18:33:14.518080","MEAN_MOTION":13.29331431,"ECCENTRICITY":3.43e-5,"INCLINATION":50.0053,"RA_OF_ASC_NODE":310.0511,"ARG_OF_PERICENTER":89.3635,"MEAN_ANOMALY":270.7276,"EPHEMERIS_TYPE":0,"CLASSIFICATION_TYPE":"U","NORAD_CAT_ID":66415,"ELEMENT_SET_NO":999,"REV_AT_EPOCH":1583,"BSTAR":0.00014653,"MEAN_MOTION_DOT":-5.6e-7,"MEAN_MOTION_DDOT":0},{"OBJECT_NAME":"HULIANWANG DIGUI-100","OBJECT_ID":"2025-258E","EPOCH":"2026-03-04T19:09:17.892864","MEAN_MOTION":13.29334394,"ECCENTRICITY":3.22e-5,"INCLINATION":50.0057,"RA_OF_ASC_NODE":310.1894,"ARG_OF_PERICENTER":86.5103,"MEAN_ANOMALY":273.5806,"EPHEMERIS_TYPE":0,"CLASSIFICATION_TYPE":"U","NORAD_CAT_ID":66416,"ELEMENT_SET_NO":999,"REV_AT_EPOCH":1585,"BSTAR":0.00015413,"MEAN_MOTION_DOT":-5.3e-7,"MEAN_MOTION_DDOT":0},{"OBJECT_NAME":"HULIANWANG DIGUI-101","OBJECT_ID":"2025-258F","EPOCH":"2026-03-04T18:57:17.258976","MEAN_MOTION":13.29332618,"ECCENTRICITY":3.54e-5,"INCLINATION":50.0007,"RA_OF_ASC_NODE":310.0877,"ARG_OF_PERICENTER":81.8338,"MEAN_ANOMALY":278.2574,"EPHEMERIS_TYPE":0,"CLASSIFICATION_TYPE":"U","NORAD_CAT_ID":66417,"ELEMENT_SET_NO":999,"REV_AT_EPOCH":1585,"BSTAR":0.00016104,"MEAN_MOTION_DOT":-4.9e-7,"MEAN_MOTION_DDOT":0},{"OBJECT_NAME":"HULIANWANG DIGUI-102","OBJECT_ID":"2025-258G","EPOCH":"2026-03-04T18:21:09.482976","MEAN_MOTION":13.29334525,"ECCENTRICITY":3.69e-5,"INCLINATION":50.0021,"RA_OF_ASC_NODE":309.968,"ARG_OF_PERICENTER":102.6646,"MEAN_ANOMALY":257.4267,"EPHEMERIS_TYPE":0,"CLASSIFICATION_TYPE":"U","NORAD_CAT_ID":66418,"ELEMENT_SET_NO":999,"REV_AT_EPOCH":1584,"BSTAR":0.00014714,"MEAN_MOTION_DOT":-5.6e-7,"MEAN_MOTION_DDOT":0},{"OBJECT_NAME":"HULIANWANG DIGUI-103","OBJECT_ID":"2025-258H","EPOCH":"2026-03-04T18:09:09.499680","MEAN_MOTION":13.29333509,"ECCENTRICITY":2.98e-5,"INCLINATION":50.0014,"RA_OF_ASC_NODE":309.9167,"ARG_OF_PERICENTER":84.2569,"MEAN_ANOMALY":275.8337,"EPHEMERIS_TYPE":0,"CLASSIFICATION_TYPE":"U","NORAD_CAT_ID":66419,"ELEMENT_SET_NO":999,"REV_AT_EPOCH":1584,"BSTAR":0.00014847,"MEAN_MOTION_DOT":-5.5e-7,"MEAN_MOTION_DDOT":0},{"OBJECT_NAME":"HULIANWANG DIGUI-104","OBJECT_ID":"2025-258J","EPOCH":"2026-03-04T17:57:09.008352","MEAN_MOTION":13.29332895,"ECCENTRICITY":3.88e-5,"INCLINATION":50.0031,"RA_OF_ASC_NODE":309.8957,"ARG_OF_PERICENTER":106.5875,"MEAN_ANOMALY":253.504,"EPHEMERIS_TYPE":0,"CLASSIFICATION_TYPE":"U","NORAD_CAT_ID":66420,"ELEMENT_SET_NO":999,"REV_AT_EPOCH":1583,"BSTAR":0.00015419,"MEAN_MOTION_DOT":-5.2e-7,"MEAN_MOTION_DDOT":0},{"OBJECT_NAME":"HULIANWANG DIGUI-105","OBJECT_ID":"2025-285A","EPOCH":"2026-03-04T18:02:46.019328","MEAN_MOTION":13.29331635,"ECCENTRICITY":7.3e-6,"INCLINATION":50.0045,"RA_OF_ASC_NODE":160.7727,"ARG_OF_PERICENTER":303.1983,"MEAN_ANOMALY":56.8882,"EPHEMERIS_TYPE":0,"CLASSIFICATION_TYPE":"U","NORAD_CAT_ID":66915,"ELEMENT_SET_NO":999,"REV_AT_EPOCH":1216,"BSTAR":7.1612e-5,"MEAN_MOTION_DOT":-9.1e-7,"MEAN_MOTION_DDOT":0},{"OBJECT_NAME":"HULIANWANG DIGUI-106","OBJECT_ID":"2025-285B","EPOCH":"2026-03-04T05:13:20.040384","MEAN_MOTION":13.29373542,"ECCENTRICITY":0.0006718,"INCLINATION":49.9908,"RA_OF_ASC_NODE":162.6187,"ARG_OF_PERICENTER":40.7121,"MEAN_ANOMALY":319.4252,"EPHEMERIS_TYPE":0,"CLASSIFICATION_TYPE":"U","NORAD_CAT_ID":66916,"ELEMENT_SET_NO":999,"REV_AT_EPOCH":1209,"BSTAR":-1.4013,"MEAN_MOTION_DOT":-0.00623778,"MEAN_MOTION_DDOT":0},{"OBJECT_NAME":"HULIANWANG DIGUI-107","OBJECT_ID":"2025-285C","EPOCH":"2026-03-04T17:38:42.988128","MEAN_MOTION":13.29331144,"ECCENTRICITY":3.7e-6,"INCLINATION":50.0021,"RA_OF_ASC_NODE":160.6682,"ARG_OF_PERICENTER":355.3876,"MEAN_ANOMALY":4.6996,"EPHEMERIS_TYPE":0,"CLASSIFICATION_TYPE":"U","NORAD_CAT_ID":66917,"ELEMENT_SET_NO":999,"REV_AT_EPOCH":1216,"BSTAR":4.387e-5,"MEAN_MOTION_DOT":-1.04e-6,"MEAN_MOTION_DDOT":0},{"OBJECT_NAME":"HULIANWANG DIGUI-108","OBJECT_ID":"2025-285D","EPOCH":"2026-03-04T19:14:56.059008","MEAN_MOTION":13.29331606,"ECCENTRICITY":3.7e-6,"INCLINATION":50.0043,"RA_OF_ASC_NODE":160.372,"ARG_OF_PERICENTER":34.4237,"MEAN_ANOMALY":325.6638,"EPHEMERIS_TYPE":0,"CLASSIFICATION_TYPE":"U","NORAD_CAT_ID":66918,"ELEMENT_SET_NO":999,"REV_AT_EPOCH":1217,"BSTAR":7.8203e-5,"MEAN_MOTION_DOT":-8.8e-7,"MEAN_MOTION_DDOT":0},{"OBJECT_NAME":"HULIANWANG DIGUI-109","OBJECT_ID":"2025-285E","EPOCH":"2026-03-04T19:02:54.396960","MEAN_MOTION":13.29331369,"ECCENTRICITY":3.0e-6,"INCLINATION":50.0067,"RA_OF_ASC_NODE":160.3483,"ARG_OF_PERICENTER":27.3729,"MEAN_ANOMALY":332.7145,"EPHEMERIS_TYPE":0,"CLASSIFICATION_TYPE":"U","NORAD_CAT_ID":66919,"ELEMENT_SET_NO":999,"REV_AT_EPOCH":1218,"BSTAR":9.9653e-5,"MEAN_MOTION_DOT":-7.8e-7,"MEAN_MOTION_DDOT":0},{"OBJECT_NAME":"HULIANWANG DIGUI-110","OBJECT_ID":"2025-285F","EPOCH":"2026-03-04T18:50:53.109888","MEAN_MOTION":13.29331027,"ECCENTRICITY":2.7e-6,"INCLINATION":50.0099,"RA_OF_ASC_NODE":160.3306,"ARG_OF_PERICENTER":352.1401,"MEAN_ANOMALY":7.9471,"EPHEMERIS_TYPE":0,"CLASSIFICATION_TYPE":"U","NORAD_CAT_ID":66920,"ELEMENT_SET_NO":999,"REV_AT_EPOCH":1217,"BSTAR":5.0805e-5,"MEAN_MOTION_DOT":-1.0e-6,"MEAN_MOTION_DDOT":0},{"OBJECT_NAME":"HULIANWANG DIGUI-111","OBJECT_ID":"2025-285G","EPOCH":"2026-03-04T18:38:51.244800","MEAN_MOTION":13.2933099,"ECCENTRICITY":1.8e-6,"INCLINATION":50.0116,"RA_OF_ASC_NODE":160.3004,"ARG_OF_PERICENTER":316.2037,"MEAN_ANOMALY":43.8834,"EPHEMERIS_TYPE":0,"CLASSIFICATION_TYPE":"U","NORAD_CAT_ID":66921,"ELEMENT_SET_NO":999,"REV_AT_EPOCH":1217,"BSTAR":8.0683e-5,"MEAN_MOTION_DOT":-8.7e-7,"MEAN_MOTION_DDOT":0},{"OBJECT_NAME":"HULIANWANG DIGUI-112","OBJECT_ID":"2025-285H","EPOCH":"2026-03-04T18:26:49.623360","MEAN_MOTION":13.29331438,"ECCENTRICITY":7.1e-6,"INCLINATION":50.0078,"RA_OF_ASC_NODE":160.2295,"ARG_OF_PERICENTER":328.5158,"MEAN_ANOMALY":31.571,"EPHEMERIS_TYPE":0,"CLASSIFICATION_TYPE":"U","NORAD_CAT_ID":66922,"ELEMENT_SET_NO":999,"REV_AT_EPOCH":1217,"BSTAR":0.00015196,"MEAN_MOTION_DOT":-5.4e-7,"MEAN_MOTION_DDOT":0}]
