HULIANWANG DIGUI-97     
1 66413U 25258B   26063.73967160 -.00000046  00000+0  16808-3 0  9994
2 66413  50.0018 310.5020 0000406  95.1287 264.9631 13.29332300 15833
HULIANWANG DIGUI-98     
1 66414U 25258C   26063.73129279 -.00000048  00000+0  16384-3 0  9997
2 66414  50.0055 310.5001 0000448 108.6207 251.4714 13.29333866 15833
HULIANWANG DIGUI-99     
1 66415U 25258D   26063.77308470 -.00000056  00000+0  14653-3 0  9990
2 66415  50.0053 310.0511 0000343  89.3635 270.7276 13.29331431 15830
HULIANWANG DIGUI-100    
1 66416U 25258E   26063.79812376 -.00000053  00000+0  15413-3 0  9990
2 66416  50.0057 310.1894 0000322  86.5103 273.5806 13.29334394 15859
HULIANWANG DIGUI-101    
1 66417U 25258F   26063.78978309 -.00000049  00000+0  16104-3 0  9992
2 66417  50.0007 310.0877 0000354  81.8338 278.2574 13.29332618 15859
HULIANWANG DIGUI-102    
1 66418U 25258G   26063.76469309 -.00000056  00000+0  14714-3 0  9999
2 66418  50.0021 309.9680 0000369 102.6646 257.4267 13.29334525 15841
HULIANWANG DIGUI-103    
1 66419U 25258H   26063.75635995 -.00000055  00000+0  14847-3 0  9991
2 66419  50.0014 309.9167 0000298  84.2569 275.8337 13.29333509 15847
HULIANWANG DIGUI-104    
1 66420U 25258J   26063.74802093 -.00000052  00000+0  15419-3 0  9990
2 66420  50.0031 309.8957 0000388 106.5875 253.5040 13.29332895 15832
HULIANWANG DIGUI-105    
1 66915U 25285A   26063.75192152 -.00000091  00000+0  71612-4 0  9999
2 66915  50.0045 160.7727 0000073 303.1983  56.8882 13.29331635 12163
HULIANWANG DIGUI-106    
1 66916U 25285B   26063.21759306 -.00623778  00000+0 -14013+1 0  9993
2 66916  49.9908 162.6187 0006718  40.7121 319.4252 13.29373542 12094
HULIANWANG DIGUI-107    
1 66917U 25285C   26063.73521977 -.00000104  00000+0  43870-4 0  9990
2 66917  50.0021 160.6682 0000037 355.3876   4.6996 13.29331144 12160
HULIANWANG DIGUI-108    
1 66918U 25285D   26063.80203772 -.00000088  00000+0  78203-4 0  9998
2 66918  50.0043 160.3720 0000037  34.4237 325.6638 13.29331606 12174
HULIANWANG DIGUI-109    
1 66919U 25285E   26063.79368515 -.00000078  00000+0  99653-4 0  9995
2 66919  50.0067 160.3483 0000030  27.3729 332.7145 13.29331369 12186
HULIANWANG DIGUI-110    
1 66920U 25285F   26063.78533692 -.00000100  00000+0  50805-4 0  9998
2 66920  50.0099 160.3306 0000027 352.1401   7.9471 13.29331027 12172
HULIANWANG DIGUI-111    
1 66921U 25285G   26063.77698200 -.00000087  00000+0  80683-4 0  9996
2 66921  50.0116 160.3004 0000018 316.2037  43.8834 13.29330990 12174
HULIANWANG DIGUI-112    
1 66922U 25285H   26063.76862990 -.00000054  00000+0  15196-3 0  9995
2 66922  50.0078 160.2295 0000071 328.5158  31.5710 13.29331438 12177
